{
    "links": {
        "self": "http://www.neowsapp.com/rest/v1/neo/3788161?api_key=iIulBulltgU6a56xZRHN4H3l9WmuAYTsLGpBGhQ2"
    },
    "id": "3788161",
    "neo_reference_id": "3788161",
    "name": "(2017 UM44)",
    "designation": "2017 UM44",
    "nasa_jpl_url": "http://ssd.jpl.nasa.gov/sbdb.cgi?sstr=3788161",
    "absolute_magnitude_h": 24.3,
    "estimated_diameter": {
        "kilometers": {
            "estimated_diameter_min": 0.0366906138,
            "estimated_diameter_max": 0.0820427065
        },
        "meters": {
            "estimated_diameter_min": 36.6906137531,
            "estimated_diameter_max": 82.0427064882
        },
        "miles": {
            "estimated_diameter_min": 0.0227984834,
            "estimated_diameter_max": 0.0509789586
        },
        "feet": {
            "estimated_diameter_min": 120.3760332259,
            "estimated_diameter_max": 269.1689931548
        }
    },
    "is_potentially_hazardous_asteroid": false,
    "close_approach_data": [
        {
            "close_approach_date": "1906-06-11",
            "close_approach_date_full": "1906-Jun-11 12:09",
            "epoch_date_close_approach": -2005732260000,
            "relative_velocity": {
                "kilometers_per_second": "26.1287955504",
                "kilometers_per_hour": "94063.663981372",
                "miles_per_hour": "58447.5027666475"
            },
            "miss_distance": {
                "astronomical": "0.132851863",
                "lunar": "51.679374707",
                "kilometers": "19874355.73033181",
                "miles": "12349352.003766578"
            },
            "orbiting_body": "Earth"
        },
        {
            "close_approach_date": "2017-11-06",
            "close_approach_date_full": "2017-Nov-06 13:23",
            "epoch_date_close_approach": 1509974580000,
            "relative_velocity": {
                "kilometers_per_second": "24.1859537956",
                "kilometers_per_hour": "87069.4336640592",
                "miles_per_hour": "54101.560045315"
            },
            "miss_distance": {
                "astronomical": "0.0522249091",
                "lunar": "20.3154896399",
                "kilometers": "7812735.162303617",
                "miles": "4854608.5186672346"
            },
            "orbiting_body": "Earth"
        }
    ],
    "orbital_data": {
        "orbit_id": "3",
        "orbit_determination_date": "2017-11-04 06:43:29",
        "first_observation_date": "2017-10-29",
        "last_observation_date": "2017-11-03",
        "data_arc_in_days": 5,
        "observations_used": 33,
        "orbit_uncertainty": "9",
        "minimum_orbit_intersection": ".0522233",
        "jupiter_tisserand_invariant": "3.727",
        "epoch_osculation": "2458056.5",
        "eccentricity": ".7452946588681989",
        "semi_major_axis": "1.757304407960381",
        "inclination": "8.499334279293226",
        "ascending_node_longitude": "23.63935713382985",
        "orbital_period": "850.8811928203806",
        "perihelion_distance": ".4475948187019667",
        "perihelion_argument": "127.5495032138584",
        "aphelion_distance": "3.067013997218796",
        "perihelion_time": "2458110.781726356481",
        "mean_anomaly": "337.0339012623372",
        "mean_motion": ".4230907946228344",
        "equinox": "J2000",
        "orbit_class": {
            "orbit_class_type": "APO",
            "orbit_class_description": "Near-Earth asteroid orbits which cross the Earth’s orbit similar to that of 1862 Apollo",
            "orbit_class_range": "a (semi-major axis) > 1.0 AU; q (perihelion) < 1.017 AU"
        }
    },
    "is_sentry_object": false
}